OBJECT_NAME,OBJECT_ID,EPOCH,MEAN_MOTION,ECCENTRICITY,INCLINATION,RA_OF_ASC_NODE,ARG_OF_PERICENTER,MEAN_ANOMALY,EPHEMERIS_TYPE,CLASSIFICATION_TYPE,NORAD_CAT_ID,ELEMENT_SET_NO,REV_AT_EPOCH,BSTAR,MEAN_MOTION_DOT,MEAN_MOTION_DDOT
ONEWEB-0473,2022-012AH,2026-07-11T14:41:47.002848,13.10375723,.00018714,87.8815,31.4094,86.4654,273.6688,0,U,51653,999,21250,.15725142E-2,.562E-5,0
ONEWEB-0474,2022-012AJ,2026-07-11T14:29:32.665920,13.10376759,.00015244,87.8828,31.3969,91.4225,268.7077,0,U,51654,999,21249,.52004966E-3,.194E-5,0
ONEWEB-0475,2022-012AK,2026-07-11T21:38:17.768256,13.17648351,.0001306,87.9143,0.9558,108.3300,251.7973,0,U,51655,999,21694,.12971535E-3,.63E-6,0
ONEWEB-0490,2022-138A,2026-07-11T18:36:03.632256,13.19726352,.00020652,87.9192,300.0716,105.4782,254.6579,0,U,54113,999,18007,.14407597E-4,.19E-6,0
ONEWEB-0492,2022-138B,2026-07-11T19:12:25.844832,13.19727829,.00020875,87.9187,300.0657,100.4740,259.6628,0,U,54114,999,18008,.17872309E-3,.85E-6,0
ONEWEB-0495,2022-138C,2026-07-11T20:29:47.255424,13.19726105,.00021371,87.9185,300.0586,118.9874,241.1473,0,U,54115,999,18007,-.34444295E-4,-.1E-7,0
ONEWEB-0497,2022-138D,2026-07-11T18:58:48.556128,13.19726022,.00020732,87.9192,300.0646,102.8671,257.2693,0,U,54116,999,18005,.48720568E-4,.32E-6,0
ONEWEB-0499,2022-138E,2026-07-11T20:24:05.277312,13.19724177,.00019188,87.9185,300.0602,106.3383,253.7961,0,U,54117,999,18007,.17639563E-4,.2E-6,0
ONEWEB-0500,2022-138F,2026-07-11T20:27:31.235040,13.19725637,.00021064,87.9191,300.0559,99.4168,260.7203,0,U,54118,999,18008,-.51303046E-4,-.8E-7,0
ONEWEB-0501,2022-138G,2026-07-11T19:21:33.947424,13.19725506,.00020848,87.9198,300.0639,112.1134,248.0220,0,U,54119,999,18005,.22189188E-3,.102E-5,0
ONEWEB-0502,2022-138H,2026-07-11T19:01:05.178720,13.19725347,.00018871,87.9194,300.0564,105.8746,254.2595,0,U,54120,999,18007,-.13941976E-4,.7E-7,0
ONEWEB-0503,2022-138J,2026-07-11T20:34:20.175744,13.19725882,.00018037,87.9196,300.0499,96.8732,263.2606,0,U,54121,999,18007,-.69983761E-4,-.15E-6,0
ONEWEB-0504,2022-138K,2026-07-11T20:16:08.364864,13.19726633,.00018545,87.9199,300.0558,110.6900,249.4432,0,U,54122,999,18008,.55727015E-4,.35E-6,0
ONEWEB-0505,2022-138L,2026-07-11T20:11:33.803808,13.19727415,.0001907,87.9192,300.0582,113.6656,246.4677,0,U,54123,999,18006,-.83992631E-4,-.21E-6,0
ONEWEB-0506,2022-138M,2026-07-11T19:35:12.709248,13.19725344,.00019749,87.9193,300.0611,109.6355,250.4991,0,U,54124,999,18005,.13434622E-4,.18E-6,0
ONEWEB-0507,2022-138N,2026-07-11T20:04:45.768576,13.19726391,.00020089,87.9186,300.0668,105.7694,254.3661,0,U,54125,999,18010,-.14450712E-3,-.45E-6,0
ONEWEB-0508,2022-138P,2026-07-11T20:00:13.305312,13.19725323,.00022139,87.9199,300.0649,106.2644,253.8733,0,U,54126,999,18008,-.65570916E-4,-.13E-6,0
ONEWEB-0509,2022-138Q,2026-07-11T19:23:48.682176,13.19724496,.00019974,87.9195,300.0642,102.3575,257.7781,0,U,54127,999,18005,.11761342E-3,.6E-6,0
ONEWEB-0510,2022-138R,2026-07-11T18:04:15.724992,13.20770293,.00020394,87.9184,269.5409,85.4324,274.7042,0,U,54128,999,18252,.88326213E-4,.49E-6,0
ONEWEB-0511,2022-138S,2026-07-11T19:19:14.925504,13.19724524,.00017382,87.9191,300.0663,102.2489,257.8838,0,U,54129,999,18008,-.65561359E-3,-.25E-5,0
ONEWEB-0512,2022-138T,2026-07-11T19:07:53.358240,13.19726467,.00018538,87.9184,300.0713,109.4203,250.7130,0,U,54130,999,18005,.60931546E-4,.37E-6,0
ONEWEB-0513,2022-138U,2026-07-11T19:01:24.287808,13.20269316,.00014425,87.9191,300.0133,124.8081,235.3188,0,U,54131,999,17996,.11561525E-4,.18E-6,0
ONEWEB-0514,2022-138V,2026-07-11T19:30:38.533536,13.19725884,.00019891,87.9202,300.0638,104.0896,256.0458,0,U,54132,999,18007,-.12099394E-3,-.35E-6,0
ONEWEB-0515,2022-138W,2026-07-11T17:44:54.022560,13.20771018,.00028788,87.9192,269.5394,89.0696,271.0767,0,U,54133,999,18254,-.31199091E-3,-.114E-5,0
ONEWEB-0516,2022-138X,2026-07-11T20:43:24.631392,13.19725026,.00021317,87.9186,300.0580,102.6729,257.4642,0,U,54134,999,18008,-.34024478E-3,-.123E-5,0
ONEWEB-0517,2022-138Y,2026-07-11T20:13:51.856320,13.19726275,.00016919,87.9192,300.0567,93.5963,266.5363,0,U,54135,999,18008,-.22006458E-3,-.75E-6,0
ONEWEB-0518,2022-138Z,2026-07-11T20:41:08.719872,13.19723754,.00022115,87.9186,300.0605,101.4179,258.7202,0,U,54136,999,18008,.36913194E-4,.28E-6,0
ONEWEB-0519,2022-138AA,2026-07-11T19:28:20.691840,13.19725535,.00018352,87.9191,300.0641,96.4643,263.6698,0,U,54137,999,18008,-.53845308E-3,-.203E-5,0
ONEWEB-0520,2022-138AB,2026-07-11T20:18:24.874272,13.19726292,.00019303,87.9186,300.0591,104.0987,256.0360,0,U,54138,999,18007,-.19160887E-3,-.64E-6,0
ONEWEB-0521,2022-138AC,2026-07-11T19:16:58.948320,13.19726386,.00018675,87.9194,300.0546,95.1727,264.9619,0,U,54139,999,18001,-.59710964E-4,-.11E-6,0
